{
    "type": "FeatureCollection",
    "generator": "JOSM",
    "features": [
        {
            "type": "Feature",
            "properties": {
                "ref:tn:codegeo": "117157",
                "name:fr": "Gammarth",
                "name:ar": "قمرت",
                "@id": "relation/7062758",
                "type": "boundary",
                "admin_level": "6",
                "name": "قمرت",
                "name:en": "Gammarth",
                "boundary": "administrative"
            },
            "geometry": {
                "type": "LineString",
                "coordinates": [
                    [
                        10.29280810000,
                        36.89843850000
                    ],
                    [
                        10.29246480000,
                        36.89899840000
                    ],
                    [
                        10.29261500000,
                        36.89905200000
                    ],
                    [
                        10.29281880000,
                        36.89917430000
                    ],
                    [
                        10.29294670000,
                        36.89929880000
                    ],
                    [
                        10.29298820000,
                        36.89943300000
                    ],
                    [
                        10.29331270000,
                        36.90026530000
                    ],
                    [
                        10.29354890000,
                        36.90087680000
                    ],
                    [
                        10.29407850000,
                        36.90088730000
                    ],
                    [
                        10.29423540000,
                        36.90083040000
                    ],
                    [
                        10.29451000000,
                        36.90065320000
                    ],
                    [
                        10.29520370000,
                        36.90026520000
                    ],
                    [
                        10.29595740000,
                        36.90008510000
                    ],
                    [
                        10.29625780000,
                        36.89997350000
                    ],
                    [
                        10.29708120000,
                        36.89944800000
                    ],
                    [
                        10.29965880000,
                        36.89834340000
                    ],
                    [
                        10.29921490000,
                        36.89722050000
                    ],
                    [
                        10.29923100000,
                        36.89704460000
                    ],
                    [
                        10.29985600000,
                        36.89666060000
                    ],
                    [
                        10.30089360000,
                        36.89754030000
                    ],
                    [
                        10.30099220000,
                        36.89750540000
                    ],
                    [
                        10.30110550000,
                        36.89746530000
                    ],
                    [
                        10.30209260000,
                        36.89764540000
                    ],
                    [
                        10.30309980000,
                        36.89767230000
                    ],
                    [
                        10.30581550000,
                        36.89767330000
                    ],
                    [
                        10.30650210000,
                        36.89765190000
                    ],
                    [
                        10.30701180000,
                        36.89763900000
                    ],
                    [
                        10.30741540000,
                        36.89771090000
                    ],
                    [
                        10.30869620000,
                        36.89766470000
                    ],
                    [
                        10.31054560000,
                        36.89872540000
                    ],
                    [
                        10.31139050000,
                        36.89855170000
                    ],
                    [
                        10.31264170000,
                        36.89827610000
                    ],
                    [
                        10.31364890000,
                        36.89794680000
                    ],
                    [
                        10.31420010000,
                        36.89771620000
                    ],
                    [
                        10.31441400000,
                        36.89756550000
                    ],
                    [
                        10.31458030000,
                        36.89736070000
                    ],
                    [
                        10.31472590000,
                        36.89709290000
                    ],
                    [
                        10.31484240000,
                        36.89719950000
                    ],
                    [
                        10.31491760000,
                        36.89729000000
                    ],
                    [
                        10.31495690000,
                        36.89740220000
                    ],
                    [
                        10.31486890000,
                        36.89786210000
                    ],
                    [
                        10.31480990000,
                        36.89825590000
                    ],
                    [
                        10.31476020000,
                        36.89919380000
                    ],
                    [
                        10.31468460000,
                        36.90004530000
                    ],
                    [
                        10.31466220000,
                        36.90092820000
                    ],
                    [
                        10.31456070000,
                        36.90133650000
                    ],
                    [
                        10.31441850000,
                        36.90168080000
                    ],
                    [
                        10.31436520000,
                        36.90179290000
                    ],
                    [
                        10.31406350000,
                        36.90233370000
                    ],
                    [
                        10.31395040000,
                        36.90252400000
                    ],
                    [
                        10.31390670000,
                        36.90261660000
                    ],
                    [
                        10.31386620000,
                        36.90272290000
                    ],
                    [
                        10.31380720000,
                        36.90293120000
                    ],
                    [
                        10.31371320000,
                        36.90321410000
                    ],
                    [
                        10.31364820000,
                        36.90332160000
                    ],
                    [
                        10.31358050000,
                        36.90343420000
                    ],
                    [
                        10.31351310000,
                        36.90353730000
                    ],
                    [
                        10.31344200000,
                        36.90363570000
                    ],
                    [
                        10.31331560000,
                        36.90375070000
                    ],
                    [
                        10.31318210000,
                        36.90383770000
                    ],
                    [
                        10.31300240000,
                        36.90390860000
                    ],
                    [
                        10.31282240000,
                        36.90397260000
                    ],
                    [
                        10.31209080000,
                        36.90413940000
                    ],
                    [
                        10.31180090000,
                        36.90418670000
                    ],
                    [
                        10.31153930000,
                        36.90427140000
                    ],
                    [
                        10.31129490000,
                        36.90437070000
                    ],
                    [
                        10.31107090000,
                        36.90449280000
                    ],
                    [
                        10.31081790000,
                        36.90464530000
                    ],
                    [
                        10.31059260000,
                        36.90483870000
                    ],
                    [
                        10.31041950000,
                        36.90504910000
                    ],
                    [
                        10.31027470000,
                        36.90526780000
                    ],
                    [
                        10.31014590000,
                        36.90552090000
                    ],
                    [
                        10.31007080000,
                        36.90571610000
                    ],
                    [
                        10.31002520000,
                        36.90589200000
                    ],
                    [
                        10.30999840000,
                        36.90615790000
                    ],
                    [
                        10.30996890000,
                        36.90666190000
                    ],
                    [
                        10.30995820000,
                        36.90732250000
                    ],
                    [
                        10.30984990000,
                        36.90773890000
                    ],
                    [
                        10.30984640000,
                        36.90812400000
                    ],
                    [
                        10.30986660000,
                        36.90852470000
                    ],
                    [
                        10.30988250000,
                        36.90874620000
                    ],
                    [
                        10.30991490000,
                        36.90895410000
                    ],
                    [
                        10.30997810000,
                        36.90914350000
                    ],
                    [
                        10.31004950000,
                        36.90931830000
                    ],
                    [
                        10.31019060000,
                        36.90960730000
                    ],
                    [
                        10.31026520000,
                        36.90971280000
                    ],
                    [
                        10.31030410000,
                        36.90976770000
                    ],
                    [
                        10.31044020000,
                        36.90992140000
                    ],
                    [
                        10.31059370000,
                        36.91009490000
                    ],
                    [
                        10.31122920000,
                        36.91072020000
                    ],
                    [
                        10.31154180000,
                        36.91108460000
                    ],
                    [
                        10.31195680000,
                        36.91177580000
                    ],
                    [
                        10.31247460000,
                        36.91285270000
                    ],
                    [
                        10.31249850000,
                        36.91290150000
                    ],
                    [
                        10.31276680000,
                        36.91344060000
                    ],
                    [
                        10.31283900000,
                        36.91357810000
                    ],
                    [
                        10.31291350000,
                        36.91385740000
                    ],
                    [
                        10.31294650000,
                        36.91411820000
                    ],
                    [
                        10.31294300000,
                        36.91420120000
                    ],
                    [
                        10.31277860000,
                        36.91494190000
                    ],
                    [
                        10.31223750000,
                        36.91551830000
                    ],
                    [
                        10.31196790000,
                        36.91571660000
                    ],
                    [
                        10.31083340000,
                        36.91625490000
                    ],
                    [
                        10.30814380000,
                        36.91755170000
                    ],
                    [
                        10.30652240000,
                        36.91833340000
                    ],
                    [
                        10.30613340000,
                        36.91836020000
                    ],
                    [
                        10.30554610000,
                        36.91809750000
                    ],
                    [
                        10.30506330000,
                        36.91804600000
                    ],
                    [
                        10.30483530000,
                        36.91812970000
                    ],
                    [
                        10.30422910000,
                        36.91888450000
                    ],
                    [
                        10.30414730000,
                        36.91899280000
                    ],
                    [
                        10.30060810000,
                        36.91991380000
                    ],
                    [
                        10.30009850000,
                        36.92002530000
                    ],
                    [
                        10.29890220000,
                        36.92006390000
                    ],
                    [
                        10.29836010000,
                        36.92010710000
                    ],
                    [
                        10.29808580000,
                        36.91953500000
                    ],
                    [
                        10.29658330000,
                        36.91948080000
                    ],
                    [
                        10.29609780000,
                        36.91848810000
                    ],
                    [
                        10.29459980000,
                        36.91895670000
                    ],
                    [
                        10.29131410000,
                        36.91973140000
                    ],
                    [
                        10.29091650000,
                        36.91982420000
                    ],
                    [
                        10.29010440000,
                        36.92002030000
                    ],
                    [
                        10.28901950000,
                        36.92029910000
                    ],
                    [
                        10.28680480000,
                        36.92082540000
                    ],
                    [
                        10.28656140000,
                        36.92086700000
                    ],
                    [
                        10.28636140000,
                        36.92088880000
                    ],
                    [
                        10.28619220000,
                        36.92089830000
                    ],
                    [
                        10.28593030000,
                        36.92090750000
                    ],
                    [
                        10.28567760000,
                        36.92090320000
                    ],
                    [
                        10.28544340000,
                        36.92088110000
                    ],
                    [
                        10.28517280000,
                        36.92083650000
                    ],
                    [
                        10.28491190000,
                        36.92077870000
                    ],
                    [
                        10.28470520000,
                        36.92071720000
                    ],
                    [
                        10.28448690000,
                        36.92064020000
                    ],
                    [
                        10.28424640000,
                        36.92054380000
                    ],
                    [
                        10.28386400000,
                        36.92032780000
                    ],
                    [
                        10.28345490000,
                        36.92004080000
                    ],
                    [
                        10.28298380000,
                        36.91965640000
                    ],
                    [
                        10.28272700000,
                        36.91944770000
                    ],
                    [
                        10.28255200000,
                        36.91929920000
                    ],
                    [
                        10.28224330000,
                        36.91895690000
                    ],
                    [
                        10.28216730000,
                        36.91884530000
                    ],
                    [
                        10.28210500000,
                        36.91873470000
                    ],
                    [
                        10.28194940000,
                        36.91854450000
                    ],
                    [
                        10.28185190000,
                        36.91829850000
                    ],
                    [
                        10.28178810000,
                        36.91816670000
                    ],
                    [
                        10.28170610000,
                        36.91797630000
                    ],
                    [
                        10.28156520000,
                        36.91756710000
                    ],
                    [
                        10.28150240000,
                        36.91730010000
                    ],
                    [
                        10.28146720000,
                        36.91708570000
                    ],
                    [
                        10.28145300000,
                        36.91677800000
                    ],
                    [
                        10.28145300000,
                        36.91648310000
                    ],
                    [
                        10.28147310000,
                        36.91601990000
                    ],
                    [
                        10.28151060000,
                        36.91568320000
                    ],
                    [
                        10.28189010000,
                        36.91351830000
                    ],
                    [
                        10.28219460000,
                        36.91177590000
                    ],
                    [
                        10.28238500000,
                        36.91066710000
                    ],
                    [
                        10.28246950000,
                        36.91025430000
                    ],
                    [
                        10.27944930000,
                        36.90860130000
                    ],
                    [
                        10.27710240000,
                        36.91097120000
                    ],
                    [
                        10.27372280000,
                        36.91334730000
                    ],
                    [
                        10.27329370000,
                        36.91367330000
                    ],
                    [
                        10.27260440000,
                        36.91334090000
                    ],
                    [
                        10.27196060000,
                        36.91443460000
                    ],
                    [
                        10.27199010000,
                        36.91491280000
                    ],
                    [
                        10.27015550000,
                        36.91732320000
                    ],
                    [
                        10.26974520000,
                        36.91749850000
                    ],
                    [
                        10.26936700000,
                        36.91760190000
                    ],
                    [
                        10.27146670000,
                        36.91439400000
                    ],
                    [
                        10.27279390000,
                        36.91163220000
                    ],
                    [
                        10.27755110000,
                        36.90628020000
                    ],
                    [
                        10.27568850000,
                        36.90523580000
                    ],
                    [
                        10.27557520000,
                        36.90501610000
                    ],
                    [
                        10.27570030000,
                        36.90443820000
                    ],
                    [
                        10.27581790000,
                        36.90426410000
                    ],
                    [
                        10.27844050000,
                        36.90326140000
                    ],
                    [
                        10.27860330000,
                        36.90329100000
                    ],
                    [
                        10.27925850000,
                        36.90403450000
                    ],
                    [
                        10.27946140000,
                        36.90412810000
                    ],
                    [
                        10.27978380000,
                        36.90410290000
                    ],
                    [
                        10.28222090000,
                        36.90332060000
                    ],
                    [
                        10.28246870000,
                        36.90325250000
                    ],
                    [
                        10.28334170000,
                        36.90324370000
                    ],
                    [
                        10.28357520000,
                        36.90321330000
                    ],
                    [
                        10.28488780000,
                        36.90130920000
                    ],
                    [
                        10.28492630000,
                        36.90119480000
                    ],
                    [
                        10.28482870000,
                        36.90111390000
                    ],
                    [
                        10.28408390000,
                        36.90086240000
                    ],
                    [
                        10.28375310000,
                        36.90064280000
                    ],
                    [
                        10.28313070000,
                        36.90007520000
                    ],
                    [
                        10.28299190000,
                        36.89987160000
                    ],
                    [
                        10.28290220000,
                        36.89926610000
                    ],
                    [
                        10.28288020000,
                        36.89895430000
                    ],
                    [
                        10.28295480000,
                        36.89866660000
                    ],
                    [
                        10.28326320000,
                        36.89849620000
                    ],
                    [
                        10.28462150000,
                        36.89799910000
                    ],
                    [
                        10.28473200000,
                        36.89788930000
                    ],
                    [
                        10.28473250000,
                        36.89771810000
                    ],
                    [
                        10.28324400000,
                        36.89491650000
                    ],
                    [
                        10.28282500000,
                        36.89376330000
                    ],
                    [
                        10.28566000000,
                        36.89517380000
                    ],
                    [
                        10.29280810000,
                        36.89843850000
                    ],
                    [
                            10.28360030000,
                            36.92027100000
                        ],
                        [
                            10.28393700000,
                            36.92053250000
                        ],
                        [
                            10.28447100000,
                            36.92078250000
                        ],
                        [
                            10.28468020000,
                            36.92087570000
                        ],
                        [
                            10.28495440000,
                            36.92094690000
                        ],
                        [
                            10.28524920000,
                            36.92100450000
                        ],
                        [
                            10.28563430000,
                            36.92105570000
                        ],
                        [
                            10.28597950000,
                            36.92106780000
                        ],
                        [
                            10.28632520000,
                            36.92104000000
                        ],
                        [
                            10.28690750000,
                            36.92093630000
                        ],
                        [
                            10.28709950000,
                            36.92088920000
                        ],
                        [
                            10.28710080000,
                            36.92087980000
                        ],
                        [
                            10.28776520000,
                            36.92071510000
                        ],
                        [
                            10.28809020000,
                            36.92063460000
                        ],
                        [
                            10.28813140000,
                            36.92059960000
                        ],
                        [
                            10.28892870000,
                            36.92040200000
                        ],
                        [
                            10.28902490000,
                            36.92037580000
                        ],
                        [
                            10.28910590000,
                            36.92035210000
                        ],
                        [
                            10.29022860000,
                            36.92007780000
                        ],
                        [
                            10.29120880000,
                            36.91985190000
                        ],
                        [
                            10.29120940000,
                            36.91988620000
                        ],
                        [
                            10.29124660000,
                            36.91995130000
                        ],
                        [
                            10.29140620000,
                            36.92011570000
                        ],
                        [
                            10.29256230000,
                            36.91985080000
                        ],
                        [
                            10.29476300000,
                            36.91929520000
                        ],
                        [
                            10.29633460000,
                            36.91881530000
                        ],
                        [
                            10.29669230000,
                            36.91941240000
                        ],
                        [
                            10.29811320000,
                            36.91944700000
                        ],
                        [
                            10.29845630000,
                            36.92014430000
                        ],
                        [
                            10.29833730000,
                            36.92017550000
                        ],
                        [
                            10.29820840000,
                            36.92019110000
                        ],
                        [
                            10.29807030000,
                            36.92022200000
                        ],
                        [
                            10.29794360000,
                            36.92025910000
                        ],
                        [
                            10.29721730000,
                            36.92051340000
                        ],
                        [
                            10.29716390000,
                            36.92053020000
                        ],
                        [
                            10.29596340000,
                            36.92099990000
                        ],
                        [
                            10.29461270000,
                            36.92142490000
                        ],
                        [
                            10.29343780000,
                            36.92172320000
                        ],
                        [
                            10.29341660000,
                            36.92167800000
                        ],
                        [
                            10.29169320000,
                            36.92211310000
                        ],
                        [
                            10.29164440000,
                            36.92220460000
                        ],
                        [
                            10.29121170000,
                            36.92232520000
                        ],
                        [
                            10.29047380000,
                            36.92255570000
                        ],
                        [
                            10.29036290000,
                            36.92258810000
                        ],
                        [
                            10.29001030000,
                            36.92266500000
                        ],
                        [
                            10.28941980000,
                            36.92279380000
                        ],
                        [
                            10.28922060000,
                            36.92288000000
                        ],
                        [
                            10.28899010000,
                            36.92297690000
                        ],
                        [
                            10.28866050000,
                            36.92312020000
                        ],
                        [
                            10.28881820000,
                            36.92335240000
                        ],
                        [
                            10.28860540000,
                            36.92347070000
                        ],
                        [
                            10.28867150000,
                            36.92351540000
                        ],
                        [
                            10.28856590000,
                            36.92359620000
                        ],
                        [
                            10.28846940000,
                            36.92367010000
                        ],
                        [
                            10.28855420000,
                            36.92375330000
                        ],
                        [
                            10.28826780000,
                            36.92388790000
                        ],
                        [
                            10.28823660000,
                            36.92383790000
                        ],
                        [
                            10.28815600000,
                            36.92387580000
                        ],
                        [
                            10.28811390000,
                            36.92381570000
                        ],
                        [
                            10.28808670000,
                            36.92382240000
                        ],
                        [
                            10.28804070000,
                            36.92373980000
                        ],
                        [
                            10.28800870000,
                            36.92368480000
                        ],
                        [
                            10.28805530000,
                            36.92366440000
                        ],
                        [
                            10.28797870000,
                            36.92354780000
                        ],
                        [
                            10.28806580000,
                            36.92351900000
                        ],
                        [
                            10.28800870000,
                            36.92342770000
                        ],
                        [
                            10.28782380000,
                            36.92348590000
                        ],
                        [
                            10.28778950000,
                            36.92342740000
                        ],
                        [
                            10.28777200000,
                            36.92339740000
                        ],
                        [
                            10.28736390000,
                            36.92356800000
                        ],
                        [
                            10.28760050000,
                            36.92394990000
                        ],
                        [
                            10.28752900000,
                            36.92398080000
                        ],
                        [
                            10.28740690000,
                            36.92403030000
                        ],
                        [
                            10.28742830000,
                            36.92406400000
                        ],
                        [
                            10.28719430000,
                            36.92415880000
                        ],
                        [
                            10.28716990000,
                            36.92412020000
                        ],
                        [
                            10.28696160000,
                            36.92420460000
                        ],
                        [
                            10.28676290000,
                            36.92420620000
                        ],
                        [
                            10.28647280000,
                            36.92420750000
                        ],
                        [
                            10.28647730000,
                            36.92424640000
                        ],
                        [
                            10.28639190000,
                            36.92424400000
                        ],
                        [
                            10.28624510000,
                            36.92401280000
                        ],
                        [
                            10.28618920000,
                            36.92403340000
                        ],
                        [
                            10.28613260000,
                            36.92405430000
                        ],
                        [
                            10.28641380000,
                            36.92449700000
                        ],
                        [
                            10.28620810000,
                            36.92458050000
                        ],
                        [
                            10.28624940000,
                            36.92464550000
                        ],
                        [
                            10.28584650000,
                            36.92480910000
                        ],
                        [
                            10.28582150000,
                            36.92476980000
                        ],
                        [
                            10.28566410000,
                            36.92483360000
                        ],
                        [
                            10.28499800000,
                            36.92510410000
                        ],
                        [
                            10.28498470000,
                            36.92508320000
                        ],
                        [
                            10.28472230000,
                            36.92519020000
                        ],
                        [
                            10.28477880000,
                            36.92527400000
                        ],
                        [
                            10.28459550000,
                            36.92535910000
                        ],
                        [
                            10.28444290000,
                            36.92511470000
                        ],
                        [
                            10.28427590000,
                            36.92526270000
                        ],
                        [
                            10.28400900000,
                            36.92538670000
                        ],
                        [
                            10.28385440000,
                            36.92545850000
                        ],
                        [
                            10.28324190000,
                            36.92580480000
                        ],
                        [
                            10.28274900000,
                            36.92613320000
                        ],
                        [
                            10.28237280000,
                            36.92623410000
                        ],
                        [
                            10.28233720000,
                            36.92624170000
                        ],
                        [
                            10.28229430000,
                            36.92625080000
                        ],
                        [
                            10.28226120000,
                            36.92625830000
                        ],
                        [
                            10.28223120000,
                            36.92628430000
                        ],
                        [
                            10.28184080000,
                            36.92570300000
                        ],
                        [
                            10.28166320000,
                            36.92577450000
                        ],
                        [
                            10.28148790000,
                            36.92584520000
                        ],
                        [
                            10.27993910000,
                            36.92646520000
                        ],
                        [
                            10.27984520000,
                            36.92650650000
                        ],
                        [
                            10.27988460000,
                            36.92656910000
                        ],
                        [
                            10.27915370000,
                            36.92686280000
                        ],
                        [
                            10.27920220000,
                            36.92694030000
                        ],
                        [
                            10.27843780000,
                            36.92731300000
                        ],
                        [
                            10.27795530000,
                            36.92669460000
                        ],
                        [
                            10.27775930000,
                            36.92679920000
                        ],
                        [
                            10.27758570000,
                            36.92689180000
                        ],
                        [
                            10.27765960000,
                            36.92700350000
                        ],
                        [
                            10.27747950000,
                            36.92707230000
                        ],
                        [
                            10.27733990000,
                            36.92715870000
                        ],
                        [
                            10.27515290000,
                            36.92776290000
                        ],
                        [
                            10.27497770000,
                            36.92782250000
                        ],
                        [
                            10.27454520000,
                            36.92714050000
                        ],
                        [
                            10.27441910000,
                            36.92695060000
                        ],
                        [
                            10.27397590000,
                            36.92713870000
                        ],
                        [
                            10.27274750000,
                            36.92763670000
                        ],
                        [
                            10.27251070000,
                            36.92726070000
                        ],
                        [
                            10.27211240000,
                            36.92662810000
                        ],
                        [
                            10.27192400000,
                            36.92636380000
                        ],
                        [
                            10.27163920000,
                            36.92596440000
                        ],
                        [
                            10.27151470000,
                            36.92586990000
                        ],
                        [
                            10.27182370000,
                            36.92558710000
                        ],
                        [
                            10.27202450000,
                            36.92541490000
                        ],
                        [
                            10.27291330000,
                            36.92466570000
                        ],
                        [
                            10.27467450000,
                            36.92319880000
                        ],
                        [
                            10.27673460000,
                            36.92147010000
                        ],
                        [
                            10.27774800000,
                            36.92060900000
                        ],
                        [
                            10.27782070000,
                            36.92051850000
                        ],
                        [
                            10.27784260000,
                            36.92046750000
                        ],
                        [
                            10.27808620000,
                            36.92027490000
                        ],
                        [
                            10.27820770000,
                            36.92025550000
                        ],
                        [
                            10.27890180000,
                            36.91981440000
                        ],
                        [
                            10.27946050000,
                            36.91953970000
                        ],
                        [
                            10.28034890000,
                            36.91914290000
                        ],
                        [
                            10.28123390000,
                            36.91877670000
                        ],
                        [
                            10.28154620000,
                            36.91861850000
                        ],
                        [
                            10.28162110000,
                            36.91877940000
                        ],
                        [
                            10.28173490000,
                            36.91874720000
                        ],
                        [
                            10.28183120000,
                            36.91873540000
                        ],
                        [
                            10.28190610000,
                            36.91876500000
                        ],
                        [
                            10.28197000000,
                            36.91881200000
                        ],
                        [
                            10.28232980000,
                            36.91925580000
                        ],
                        [
                            10.28278440000,
                            36.91965880000
                        ],
                        [
                            10.28287340000,
                            36.91972280000
                        ],
                        [
                            10.28340250000,
                            36.92013910000
                        ],
                        [
                            10.28360030000,
                            36.92027100000
                        ]

                ]
            }
        }
    ]
}