{
  "type": "FeatureCollection",
  "generator": "overpass-turbo",
  "copyright": "The data included in this document is from www.openstreetmap.org. The data is made available under ODbL.",
  "timestamp": "2025-07-31T10:06:15Z",
  "features": [
    {
      "type": "Feature",
      "properties": {
        "@id": "way/100982074",
        "landuse": "residential",
        "name": "حدائق قرطاج",
        "name:ar": "حدائق قرطاج",
        "name:fr": "Les Jardins de Carthage"
      },
      "geometry": {
        "type": "Polygon",
        "coordinates": [
          [
            [
              10.3034741,
              36.8608784
            ],
            [
              10.3035647,
              36.8608732
            ],
            [
              10.3036648,
              36.8608736
            ],
            [
              10.3037591,
              36.8608932
            ],
            [
              10.3038265,
              36.8609115
            ],
            [
              10.3040158,
              36.8611681
            ],
            [
              10.3040011,
              36.8611895
            ],
            [
              10.3039705,
              36.8612967
            ],
            [
              10.30394,
              36.8614019
            ],
            [
              10.3038156,
              36.8614521
            ],
            [
              10.3037258,
              36.8614993
            ],
            [
              10.3036336,
              36.8615322
            ],
            [
              10.3034356,
              36.8615001
            ],
            [
              10.3033187,
              36.8614848
            ],
            [
              10.303167,
              36.8615515
            ],
            [
              10.3027398,
              36.8617034
            ],
            [
              10.3021449,
              36.8618677
            ],
            [
              10.3017557,
              36.8619448
            ],
            [
              10.3014111,
              36.8620103
            ],
            [
              10.3008206,
              36.8620792
            ],
            [
              10.3003448,
              36.8620879
            ],
            [
              10.300193,
              36.8621018
            ],
            [
              10.2996441,
              36.8620975
            ],
            [
              10.2992928,
              36.8620546
            ],
            [
              10.2988653,
              36.8619885
            ],
            [
              10.2985349,
              36.8619196
            ],
            [
              10.298068,
              36.8618923
            ],
            [
              10.2979587,
              36.8619051
            ],
            [
              10.2978701,
              36.8618838
            ],
            [
              10.2978086,
              36.8618564
            ],
            [
              10.2977336,
              36.8618519
            ],
            [
              10.2974937,
              36.8618743
            ],
            [
              10.2972063,
              36.8618519
            ],
            [
              10.2966888,
              36.8617462
            ],
            [
              10.2958611,
              36.861526
            ],
            [
              10.2936727,
              36.8613227
            ],
            [
              10.2934112,
              36.8612735
            ],
            [
              10.2932164,
              36.8612064
            ],
            [
              10.2926508,
              36.8608236
            ],
            [
              10.2923143,
              36.8606023
            ],
            [
              10.2921604,
              36.8605314
            ],
            [
              10.2920228,
              36.8605063
            ],
            [
              10.2919348,
              36.8604431
            ],
            [
              10.2919095,
              36.8603185
            ],
            [
              10.291693,
              36.8601956
            ],
            [
              10.2915553,
              36.8601579
            ],
            [
              10.293048,
              36.8584693
            ],
            [
              10.2930325,
              36.8583256
            ],
            [
              10.2930647,
              36.8582
            ],
            [
              10.2931558,
              36.858001
            ],
            [
              10.2915292,
              36.8567717
            ],
            [
              10.2912246,
              36.8564705
            ],
            [
              10.2881141,
              36.8542056
            ],
            [
              10.289372,
              36.8533764
            ],
            [
              10.2908652,
              36.8514087
            ],
            [
              10.2921673,
              36.8495798
            ],
            [
              10.2921754,
              36.8493626
            ],
            [
              10.2933874,
              36.848661
            ],
            [
              10.2930281,
              36.8482583
            ],
            [
              10.2939638,
              36.847384
            ],
            [
              10.2967045,
              36.8486941
            ],
            [
              10.2968141,
              36.8488537
            ],
            [
              10.3011741,
              36.8509208
            ],
            [
              10.3023391,
              36.8494028
            ],
            [
              10.3026703,
              36.849051
            ],
            [
              10.3034347,
              36.8483206
            ],
            [
              10.3058869,
              36.851257
            ],
            [
              10.306279,
              36.8518123
            ],
            [
              10.3062435,
              36.8523395
            ],
            [
              10.3064181,
              36.8523826
            ],
            [
              10.3066199,
              36.8524795
            ],
            [
              10.3067441,
              36.8525703
            ],
            [
              10.3068381,
              36.8526878
            ],
            [
              10.3071877,
              36.8532392
            ],
            [
              10.3073284,
              36.8535337
            ],
            [
              10.3074566,
              36.8538444
            ],
            [
              10.3075636,
              36.8541602
            ],
            [
              10.3075928,
              36.8544203
            ],
            [
              10.3076327,
              36.854584
            ],
            [
              10.3077419,
              36.8546525
            ],
            [
              10.307841,
              36.8546736
            ],
            [
              10.3078964,
              36.8546787
            ],
            [
              10.3080884,
              36.8547333
            ],
            [
              10.308342,
              36.8548335
            ],
            [
              10.3086094,
              36.855008
            ],
            [
              10.3088568,
              36.855213
            ],
            [
              10.3090388,
              36.8554309
            ],
            [
              10.3091684,
              36.855626
            ],
            [
              10.3092566,
              36.8558779
            ],
            [
              10.3092996,
              36.8561861
            ],
            [
              10.3092689,
              36.8564717
            ],
            [
              10.3091731,
              36.8567545
            ],
            [
              10.3090065,
              36.8570099
            ],
            [
              10.3087675,
              36.8573257
            ],
            [
              10.3087342,
              36.8573609
            ],
            [
              10.308558,
              36.8575461
            ],
            [
              10.3082247,
              36.8578332
            ],
            [
              10.3078273,
              36.8581002
            ],
            [
              10.3075589,
              36.8582384
            ],
            [
              10.3071914,
              36.8584087
            ],
            [
              10.3067903,
              36.8585603
            ],
            [
              10.3063526,
              36.858679
            ],
            [
              10.3056277,
              36.8588121
            ],
            [
              10.3055399,
              36.8588253
            ],
            [
              10.3054223,
              36.8588316
            ],
            [
              10.3052172,
              36.858844
            ],
            [
              10.3050369,
              36.8588558
            ],
            [
              10.3046977,
              36.8588571
            ],
            [
              10.3044295,
              36.8588358
            ],
            [
              10.3042717,
              36.8588193
            ],
            [
              10.3042145,
              36.8588267
            ],
            [
              10.3041455,
              36.8589183
            ],
            [
              10.3038931,
              36.8592731
            ],
            [
              10.303681,
              36.8595107
            ],
            [
              10.3033437,
              36.8598182
            ],
            [
              10.3030453,
              36.8600438
            ],
            [
              10.302877,
              36.8601444
            ],
            [
              10.3028605,
              36.860218
            ],
            [
              10.3034164,
              36.8608242
            ],
            [
              10.3034741,
              36.8608784
            ]
          ]
        ]
      },
      "id": "way/100982074"
    }
  ]
}